SPOOQY-1                
1 44332U 98067QH  20349.15319769  .00026435  00000-0  28660-3 0  9990
2 44332  51.6344 150.5731 0003867 309.7396  50.3258 15.63334194 85009
RED-EYE 1 (PINOT)       
1 44364U 98067QJ  20349.22367761  .00005436  00000-0  82861-4 0  9990
2 44364  51.6388 162.3682 0006129 269.5114  90.5175 15.56219840 83311
IOD-1 GEMS              
1 44385U 98067QK  20349.56926916  .00057621  00000-0  44388-3 0  9997
2 44385  51.6353 141.4107 0003621 270.8713  89.1870 15.71402312 82680
SWIATOWID               
1 44426U 98067QL  20349.98776826  .00089630  00000-0  59507-3 0  9996
2 44426  51.6361 136.4358 0004442 265.5329 194.8797 15.74706152 82799
KRAKSAT                 
1 44427U 98067QM  20349.97477231  .00017698  00000-0  22096-3 0  9992
2 44427  51.6406 152.9679 0003066 252.0248 196.3359 15.59940843 82613
VCC A                   
1 44428U 98067QN  20349.73182322  .00024896  00000-0  27748-3 0  9998
2 44428  51.6363 150.0231 0002548 270.7509  89.3193 15.62663916 82636
ENTRYSAT                
1 44429U 98067QP  20349.72296205  .00031628  00000-0  31870-3 0  9996
2 44429  51.6335 146.8998 0002711 263.2045  96.8642 15.65097346 82670
VCC C                   
1 44430U 98067QQ  20349.86246446  .00044793  00000-0  38971-3 0  9991
2 44430  51.6343 142.5807 0002669 271.3656  88.7035 15.68576204 81564
