<?xml version="1.0" encoding="UTF-8"?>
<ndm xmlns:xsi="http://www.w3.org/2001/XMLSchema-instance" xsi:noNamespaceSchemaLocation="https://sanaregistry.org/r/ndmxml/ndmxml-1.0-master.xsd">
<omm id="CCSDS_OMM_VERS" version="2.0">
<header><CREATION_DATE/><ORIGINATOR/></header><body><segment><metadata><OBJECT_NAME>SPOOQY-1</OBJECT_NAME><OBJECT_ID>1998-067QH</OBJECT_ID><CENTER_NAME>EARTH</CENTER_NAME><REF_FRAME>TEME</REF_FRAME><TIME_SYSTEM>UTC</TIME_SYSTEM><MEAN_ELEMENT_THEORY>SGP4</MEAN_ELEMENT_THEORY></metadata><data><meanElements><EPOCH>2020-12-14T03:40:36.280416</EPOCH><MEAN_MOTION>15.63334194</MEAN_MOTION><ECCENTRICITY>.0003867</ECCENTRICITY><INCLINATION>51.6344</INCLINATION><RA_OF_ASC_NODE>150.5731</RA_OF_ASC_NODE><ARG_OF_PERICENTER>309.7396</ARG_OF_PERICENTER><MEAN_ANOMALY>50.3258</MEAN_ANOMALY></meanElements><tleParameters><EPHEMERIS_TYPE>0</EPHEMERIS_TYPE><CLASSIFICATION_TYPE>U</CLASSIFICATION_TYPE><NORAD_CAT_ID>44332</NORAD_CAT_ID><ELEMENT_SET_NO>999</ELEMENT_SET_NO><REV_AT_EPOCH>8500</REV_AT_EPOCH><BSTAR>.2866E-3</BSTAR><MEAN_MOTION_DOT>.26435E-3</MEAN_MOTION_DOT><MEAN_MOTION_DDOT>0</MEAN_MOTION_DDOT></tleParameters></data></segment></body></omm>
<omm id="CCSDS_OMM_VERS" version="2.0">
<header><CREATION_DATE/><ORIGINATOR/></header><body><segment><metadata><OBJECT_NAME>RED-EYE 1 (PINOT)</OBJECT_NAME><OBJECT_ID>1998-067QJ</OBJECT_ID><CENTER_NAME>EARTH</CENTER_NAME><REF_FRAME>TEME</REF_FRAME><TIME_SYSTEM>UTC</TIME_SYSTEM><MEAN_ELEMENT_THEORY>SGP4</MEAN_ELEMENT_THEORY></metadata><data><meanElements><EPOCH>2020-12-14T05:22:05.745504</EPOCH><MEAN_MOTION>15.56219840</MEAN_MOTION><ECCENTRICITY>.0006129</ECCENTRICITY><INCLINATION>51.6388</INCLINATION><RA_OF_ASC_NODE>162.3682</RA_OF_ASC_NODE><ARG_OF_PERICENTER>269.5114</ARG_OF_PERICENTER><MEAN_ANOMALY>90.5175</MEAN_ANOMALY></meanElements><tleParameters><EPHEMERIS_TYPE>0</EPHEMERIS_TYPE><CLASSIFICATION_TYPE>U</CLASSIFICATION_TYPE><NORAD_CAT_ID>44364</NORAD_CAT_ID><ELEMENT_SET_NO>999</ELEMENT_SET_NO><REV_AT_EPOCH>8331</REV_AT_EPOCH><BSTAR>.82861E-4</BSTAR><MEAN_MOTION_DOT>.5436E-4</MEAN_MOTION_DOT><MEAN_MOTION_DDOT>0</MEAN_MOTION_DDOT></tleParameters></data></segment></body></omm>
<omm id="CCSDS_OMM_VERS" version="2.0">
<header><CREATION_DATE/><ORIGINATOR/></header><body><segment><metadata><OBJECT_NAME>IOD-1 GEMS</OBJECT_NAME><OBJECT_ID>1998-067QK</OBJECT_ID><CENTER_NAME>EARTH</CENTER_NAME><REF_FRAME>TEME</REF_FRAME><TIME_SYSTEM>UTC</TIME_SYSTEM><MEAN_ELEMENT_THEORY>SGP4</MEAN_ELEMENT_THEORY></metadata><data><meanElements><EPOCH>2020-12-14T13:39:44.855424</EPOCH><MEAN_MOTION>15.71402312</MEAN_MOTION><ECCENTRICITY>.0003621</ECCENTRICITY><INCLINATION>51.6353</INCLINATION><RA_OF_ASC_NODE>141.4107</RA_OF_ASC_NODE><ARG_OF_PERICENTER>270.8713</ARG_OF_PERICENTER><MEAN_ANOMALY>89.1870</MEAN_ANOMALY></meanElements><tleParameters><EPHEMERIS_TYPE>0</EPHEMERIS_TYPE><CLASSIFICATION_TYPE>U</CLASSIFICATION_TYPE><NORAD_CAT_ID>44385</NORAD_CAT_ID><ELEMENT_SET_NO>999</ELEMENT_SET_NO><REV_AT_EPOCH>8268</REV_AT_EPOCH><BSTAR>.44388E-3</BSTAR><MEAN_MOTION_DOT>.57621E-3</MEAN_MOTION_DOT><MEAN_MOTION_DDOT>0</MEAN_MOTION_DDOT></tleParameters></data></segment></body></omm>
<omm id="CCSDS_OMM_VERS" version="2.0">
<header><CREATION_DATE/><ORIGINATOR/></header><body><segment><metadata><OBJECT_NAME>SWIATOWID</OBJECT_NAME><OBJECT_ID>1998-067QL</OBJECT_ID><CENTER_NAME>EARTH</CENTER_NAME><REF_FRAME>TEME</REF_FRAME><TIME_SYSTEM>UTC</TIME_SYSTEM><MEAN_ELEMENT_THEORY>SGP4</MEAN_ELEMENT_THEORY></metadata><data><meanElements><EPOCH>2020-12-14T23:42:23.177664</EPOCH><MEAN_MOTION>15.74706152</MEAN_MOTION><ECCENTRICITY>.0004442</ECCENTRICITY><INCLINATION>51.6361</INCLINATION><RA_OF_ASC_NODE>136.4358</RA_OF_ASC_NODE><ARG_OF_PERICENTER>265.5329</ARG_OF_PERICENTER><MEAN_ANOMALY>194.8797</MEAN_ANOMALY></meanElements><tleParameters><EPHEMERIS_TYPE>0</EPHEMERIS_TYPE><CLASSIFICATION_TYPE>U</CLASSIFICATION_TYPE><NORAD_CAT_ID>44426</NORAD_CAT_ID><ELEMENT_SET_NO>999</ELEMENT_SET_NO><REV_AT_EPOCH>8279</REV_AT_EPOCH><BSTAR>.59507E-3</BSTAR><MEAN_MOTION_DOT>.8963E-3</MEAN_MOTION_DOT><MEAN_MOTION_DDOT>0</MEAN_MOTION_DDOT></tleParameters></data></segment></body></omm>
<omm id="CCSDS_OMM_VERS" version="2.0">
<header><CREATION_DATE/><ORIGINATOR/></header><body><segment><metadata><OBJECT_NAME>KRAKSAT</OBJECT_NAME><OBJECT_ID>1998-067QM</OBJECT_ID><CENTER_NAME>EARTH</CENTER_NAME><REF_FRAME>TEME</REF_FRAME><TIME_SYSTEM>UTC</TIME_SYSTEM><MEAN_ELEMENT_THEORY>SGP4</MEAN_ELEMENT_THEORY></metadata><data><meanElements><EPOCH>2020-12-14T23:23:40.327584</EPOCH><MEAN_MOTION>15.59940843</MEAN_MOTION><ECCENTRICITY>.0003066</ECCENTRICITY><INCLINATION>51.6406</INCLINATION><RA_OF_ASC_NODE>152.9679</RA_OF_ASC_NODE><ARG_OF_PERICENTER>252.0248</ARG_OF_PERICENTER><MEAN_ANOMALY>196.3359</MEAN_ANOMALY></meanElements><tleParameters><EPHEMERIS_TYPE>0</EPHEMERIS_TYPE><CLASSIFICATION_TYPE>U</CLASSIFICATION_TYPE><NORAD_CAT_ID>44427</NORAD_CAT_ID><ELEMENT_SET_NO>999</ELEMENT_SET_NO><REV_AT_EPOCH>8261</REV_AT_EPOCH><BSTAR>.22096E-3</BSTAR><MEAN_MOTION_DOT>.17698E-3</MEAN_MOTION_DOT><MEAN_MOTION_DDOT>0</MEAN_MOTION_DDOT></tleParameters></data></segment></body></omm>
<omm id="CCSDS_OMM_VERS" version="2.0">
<header><CREATION_DATE/><ORIGINATOR/></header><body><segment><metadata><OBJECT_NAME>VCC A</OBJECT_NAME><OBJECT_ID>1998-067QN</OBJECT_ID><CENTER_NAME>EARTH</CENTER_NAME><REF_FRAME>TEME</REF_FRAME><TIME_SYSTEM>UTC</TIME_SYSTEM><MEAN_ELEMENT_THEORY>SGP4</MEAN_ELEMENT_THEORY></metadata><data><meanElements><EPOCH>2020-12-14T17:33:49.526208</EPOCH><MEAN_MOTION>15.62663916</MEAN_MOTION><ECCENTRICITY>.0002548</ECCENTRICITY><INCLINATION>51.6363</INCLINATION><RA_OF_ASC_NODE>150.0231</RA_OF_ASC_NODE><ARG_OF_PERICENTER>270.7509</ARG_OF_PERICENTER><MEAN_ANOMALY>89.3193</MEAN_ANOMALY></meanElements><tleParameters><EPHEMERIS_TYPE>0</EPHEMERIS_TYPE><CLASSIFICATION_TYPE>U</CLASSIFICATION_TYPE><NORAD_CAT_ID>44428</NORAD_CAT_ID><ELEMENT_SET_NO>999</ELEMENT_SET_NO><REV_AT_EPOCH>8263</REV_AT_EPOCH><BSTAR>.27748E-3</BSTAR><MEAN_MOTION_DOT>.24896E-3</MEAN_MOTION_DOT><MEAN_MOTION_DDOT>0</MEAN_MOTION_DDOT></tleParameters></data></segment></body></omm>
<omm id="CCSDS_OMM_VERS" version="2.0">
<header><CREATION_DATE/><ORIGINATOR/></header><body><segment><metadata><OBJECT_NAME>ENTRYSAT</OBJECT_NAME><OBJECT_ID>1998-067QP</OBJECT_ID><CENTER_NAME>EARTH</CENTER_NAME><REF_FRAME>TEME</REF_FRAME><TIME_SYSTEM>UTC</TIME_SYSTEM><MEAN_ELEMENT_THEORY>SGP4</MEAN_ELEMENT_THEORY></metadata><data><meanElements><EPOCH>2020-12-14T17:21:03.921120</EPOCH><MEAN_MOTION>15.65097346</MEAN_MOTION><ECCENTRICITY>.0002711</ECCENTRICITY><INCLINATION>51.6335</INCLINATION><RA_OF_ASC_NODE>146.8998</RA_OF_ASC_NODE><ARG_OF_PERICENTER>263.2045</ARG_OF_PERICENTER><MEAN_ANOMALY>96.8642</MEAN_ANOMALY></meanElements><tleParameters><EPHEMERIS_TYPE>0</EPHEMERIS_TYPE><CLASSIFICATION_TYPE>U</CLASSIFICATION_TYPE><NORAD_CAT_ID>44429</NORAD_CAT_ID><ELEMENT_SET_NO>999</ELEMENT_SET_NO><REV_AT_EPOCH>8267</REV_AT_EPOCH><BSTAR>.3187E-3</BSTAR><MEAN_MOTION_DOT>.31628E-3</MEAN_MOTION_DOT><MEAN_MOTION_DDOT>0</MEAN_MOTION_DDOT></tleParameters></data></segment></body></omm>
<omm id="CCSDS_OMM_VERS" version="2.0">
<header><CREATION_DATE/><ORIGINATOR/></header><body><segment><metadata><OBJECT_NAME>VCC C</OBJECT_NAME><OBJECT_ID>1998-067QQ</OBJECT_ID><CENTER_NAME>EARTH</CENTER_NAME><REF_FRAME>TEME</REF_FRAME><TIME_SYSTEM>UTC</TIME_SYSTEM><MEAN_ELEMENT_THEORY>SGP4</MEAN_ELEMENT_THEORY></metadata><data><meanElements><EPOCH>2020-12-14T20:41:56.929344</EPOCH><MEAN_MOTION>15.68576204</MEAN_MOTION><ECCENTRICITY>.0002669</ECCENTRICITY><INCLINATION>51.6343</INCLINATION><RA_OF_ASC_NODE>142.5807</RA_OF_ASC_NODE><ARG_OF_PERICENTER>271.3656</ARG_OF_PERICENTER><MEAN_ANOMALY>88.7035</MEAN_ANOMALY></meanElements><tleParameters><EPHEMERIS_TYPE>0</EPHEMERIS_TYPE><CLASSIFICATION_TYPE>U</CLASSIFICATION_TYPE><NORAD_CAT_ID>44430</NORAD_CAT_ID><ELEMENT_SET_NO>999</ELEMENT_SET_NO><REV_AT_EPOCH>8156</REV_AT_EPOCH><BSTAR>.38971E-3</BSTAR><MEAN_MOTION_DOT>.44793E-3</MEAN_MOTION_DOT><MEAN_MOTION_DDOT>0</MEAN_MOTION_DDOT></tleParameters></data></segment></body></omm>

</ndm>
